[{"OBJECT_NAME":"STARLINK-5476","OBJECT_ID":"2023-094AS","EPOCH":"2026-03-09T23:19:37.414848","MEAN_MOTION":15.02881176,"ECCENTRICITY":0.00018758,"INCLINATION":43.0065,"RA_OF_ASC_NODE":15.6796,"ARG_OF_PERICENTER":298.9016,"MEAN_ANOMALY":61.1638,"EPHEMERIS_TYPE":0,"CLASSIFICATION_TYPE":"U","NORAD_CAT_ID":57258,"ELEMENT_SET_NO":999,"REV_AT_EPOCH":14731,"BSTAR":0.0029468621,"MEAN_MOTION_DOT":0.00040201,"MEAN_MOTION_DDOT":0},{"OBJECT_NAME":"SL-8 DEB","OBJECT_ID":"1981-041D","EPOCH":"2026-03-09T21:47:25.057824","MEAN_MOTION":15.02958497,"ECCENTRICITY":0.00072626,"INCLINATION":74.0316,"RA_OF_ASC_NODE":15.8034,"ARG_OF_PERICENTER":178.7148,"MEAN_ANOMALY":237.7014,"EPHEMERIS_TYPE":0,"CLASSIFICATION_TYPE":"U","NORAD_CAT_ID":14346,"ELEMENT_SET_NO":999,"REV_AT_EPOCH":27979,"BSTAR":0.0011219118,"MEAN_MOTION_DOT":0.00015083,"MEAN_MOTION_DDOT":0}]
